FLOCK 4G-36             
1 62675U 25009BU  26068.70726311  .00013573  00000+0  51122-3 0  9993
2 62675  97.4053 151.0513 0003474 324.2456  35.8550 15.27209548 63701
STARLINK-32661          
1 62899U 25024W   26068.40879765  .00024191  00000+0  88570-3 0  9992
2 62899  42.9940 326.8932 0000085 165.8830 194.2024 15.27581087 62229
